[{"OBJECT_NAME":"FENGYUN 1C DEB","OBJECT_ID":"1999-025XA","EPOCH":"2026-03-06T22:59:45.233952","MEAN_MOTION":14.09653235,"ECCENTRICITY":0.0146194,"INCLINATION":99.1567,"RA_OF_ASC_NODE":205.2563,"ARG_OF_PERICENTER":205.3044,"MEAN_ANOMALY":283.9373,"EPHEMERIS_TYPE":0,"CLASSIFICATION_TYPE":"U","NORAD_CAT_ID":30241,"ELEMENT_SET_NO":999,"REV_AT_EPOCH":98098,"BSTAR":0.00044996,"MEAN_MOTION_DOT":8.24e-6,"MEAN_MOTION_DDOT":0},{"OBJECT_NAME":"FENGYUN 1C DEB","OBJECT_ID":"1999-025XB","EPOCH":"2026-03-07T00:55:47.436672","MEAN_MOTION":14.17852641,"ECCENTRICITY":0.0011692,"INCLINATION":98.6729,"RA_OF_ASC_NODE":103.2813,"ARG_OF_PERICENTER":164.3843,"MEAN_ANOMALY":256.4322,"EPHEMERIS_TYPE":0,"CLASSIFICATION_TYPE":"U","NORAD_CAT_ID":30242,"ELEMENT_SET_NO":999,"REV_AT_EPOCH":98621,"BSTAR":0.00056534,"MEAN_MOTION_DOT":1.112e-5,"MEAN_MOTION_DDOT":0},{"OBJECT_NAME":"FENGYUN 1C DEB","OBJECT_ID":"1999-025XC","EPOCH":"2026-03-07T00:22:07.356288","MEAN_MOTION":14.13163862,"ECCENTRICITY":0.001126,"INCLINATION":98.6922,"RA_OF_ASC_NODE":80.0014,"ARG_OF_PERICENTER":237.7818,"MEAN_ANOMALY":177.0031,"EPHEMERIS_TYPE":0,"CLASSIFICATION_TYPE":"U","NORAD_CAT_ID":30243,"ELEMENT_SET_NO":999,"REV_AT_EPOCH":98469,"BSTAR":0.00041211,"MEAN_MOTION_DOT":7.28e-6,"MEAN_MOTION_DDOT":0},{"OBJECT_NAME":"FENGYUN 1C DEB","OBJECT_ID":"1999-025XD","EPOCH":"2026-03-06T12:26:01.254048","MEAN_MOTION":14.1515537,"ECCENTRICITY":0.00107415,"INCLINATION":99.1375,"RA_OF_ASC_NODE":322.2125,"ARG_OF_PERICENTER":72.8679,"MEAN_ANOMALY":52.2585,"EPHEMERIS_TYPE":0,"CLASSIFICATION_TYPE":"U","NORAD_CAT_ID":30244,"ELEMENT_SET_NO":999,"REV_AT_EPOCH":98531,"BSTAR":0.00042876825,"MEAN_MOTION_DOT":7.86e-6,"MEAN_MOTION_DDOT":0},{"OBJECT_NAME":"FENGYUN 1C DEB","OBJECT_ID":"1999-025XE","EPOCH":"2026-03-07T04:39:25.672896","MEAN_MOTION":13.79299922,"ECCENTRICITY":0.0194481,"INCLINATION":98.8991,"RA_OF_ASC_NODE":53.671,"ARG_OF_PERICENTER":24.8796,"MEAN_ANOMALY":336.1583,"EPHEMERIS_TYPE":0,"CLASSIFICATION_TYPE":"U","NORAD_CAT_ID":30245,"ELEMENT_SET_NO":999,"REV_AT_EPOCH":95858,"BSTAR":0.0015998,"MEAN_MOTION_DOT":1.851e-5,"MEAN_MOTION_DDOT":0},{"OBJECT_NAME":"FENGYUN 1C DEB","OBJECT_ID":"1999-025XF","EPOCH":"2026-03-06T22:35:19.253184","MEAN_MOTION":13.37070239,"ECCENTRICITY":0.0369452,"INCLINATION":98.6811,"RA_OF_ASC_NODE":202.3762,"ARG_OF_PERICENTER":247.9688,"MEAN_ANOMALY":237.7323,"EPHEMERIS_TYPE":0,"CLASSIFICATION_TYPE":"U","NORAD_CAT_ID":30246,"ELEMENT_SET_NO":999,"REV_AT_EPOCH":93265,"BSTAR":0.00057483,"MEAN_MOTION_DOT":4.05e-6,"MEAN_MOTION_DDOT":0},{"OBJECT_NAME":"FENGYUN 1C DEB","OBJECT_ID":"1999-025XG","EPOCH":"2026-03-07T04:46:42.053376","MEAN_MOTION":14.62278075,"ECCENTRICITY":0.0186147,"INCLINATION":98.2751,"RA_OF_ASC_NODE":338.3804,"ARG_OF_PERICENTER":87.635,"MEAN_ANOMALY":69.9157,"EPHEMERIS_TYPE":0,"CLASSIFICATION_TYPE":"U","NORAD_CAT_ID":30247,"ELEMENT_SET_NO":999,"REV_AT_EPOCH":98515,"BSTAR":0.0028829,"MEAN_MOTION_DOT":0.00018647,"MEAN_MOTION_DDOT":0},{"OBJECT_NAME":"FENGYUN 1C DEB","OBJECT_ID":"1999-025XH","EPOCH":"2026-03-07T00:19:40.598112","MEAN_MOTION":14.63021237,"ECCENTRICITY":0.0029206,"INCLINATION":99.101,"RA_OF_ASC_NODE":263.4755,"ARG_OF_PERICENTER":254.439,"MEAN_ANOMALY":105.3585,"EPHEMERIS_TYPE":0,"CLASSIFICATION_TYPE":"U","NORAD_CAT_ID":30248,"ELEMENT_SET_NO":999,"REV_AT_EPOCH":98659,"BSTAR":0.004416,"MEAN_MOTION_DOT":0.00022801,"MEAN_MOTION_DDOT":0},{"OBJECT_NAME":"FENGYUN 1C DEB","OBJECT_ID":"1999-025XJ","EPOCH":"2026-03-06T23:44:54.323232","MEAN_MOTION":14.61124063,"ECCENTRICITY":0.0026253,"INCLINATION":98.9616,"RA_OF_ASC_NODE":242.0596,"ARG_OF_PERICENTER":152.1,"MEAN_ANOMALY":339.2406,"EPHEMERIS_TYPE":0,"CLASSIFICATION_TYPE":"U","NORAD_CAT_ID":30249,"ELEMENT_SET_NO":999,"REV_AT_EPOCH":98792,"BSTAR":0.0042924,"MEAN_MOTION_DOT":0.00021222,"MEAN_MOTION_DDOT":0},{"OBJECT_NAME":"FENGYUN 1C DEB","OBJECT_ID":"1999-025XK","EPOCH":"2026-03-06T22:14:21.504192","MEAN_MOTION":14.01717336,"ECCENTRICITY":0.0067576,"INCLINATION":98.7577,"RA_OF_ASC_NODE":59.484,"ARG_OF_PERICENTER":349.1868,"MEAN_ANOMALY":75.5324,"EPHEMERIS_TYPE":0,"CLASSIFICATION_TYPE":"U","NORAD_CAT_ID":30250,"ELEMENT_SET_NO":999,"REV_AT_EPOCH":97671,"BSTAR":0.00061251,"MEAN_MOTION_DOT":9.06e-6,"MEAN_MOTION_DDOT":0},{"OBJECT_NAME":"FENGYUN 1C DEB","OBJECT_ID":"1999-025XL","EPOCH":"2026-03-07T01:06:44.341920","MEAN_MOTION":14.2955532,"ECCENTRICITY":0.0052449,"INCLINATION":99.0481,"RA_OF_ASC_NODE":272.6044,"ARG_OF_PERICENTER":85.3668,"MEAN_ANOMALY":67.2626,"EPHEMERIS_TYPE":0,"CLASSIFICATION_TYPE":"U","NORAD_CAT_ID":30251,"ELEMENT_SET_NO":999,"REV_AT_EPOCH":99346,"BSTAR":0.00047451,"MEAN_MOTION_DOT":1.185e-5,"MEAN_MOTION_DDOT":0},{"OBJECT_NAME":"FENGYUN 1C DEB","OBJECT_ID":"1999-025XM","EPOCH":"2026-03-07T00:30:48.140928","MEAN_MOTION":14.09866151,"ECCENTRICITY":0.0066355,"INCLINATION":98.7406,"RA_OF_ASC_NODE":83.647,"ARG_OF_PERICENTER":4.5235,"MEAN_ANOMALY":49.2241,"EPHEMERIS_TYPE":0,"CLASSIFICATION_TYPE":"U","NORAD_CAT_ID":30252,"ELEMENT_SET_NO":999,"REV_AT_EPOCH":98153,"BSTAR":0.00050539,"MEAN_MOTION_DOT":8.65e-6,"MEAN_MOTION_DDOT":0},{"OBJECT_NAME":"FENGYUN 1C DEB","OBJECT_ID":"1999-025XN","EPOCH":"2026-03-07T04:28:19.997184","MEAN_MOTION":13.73562435,"ECCENTRICITY":0.0223053,"INCLINATION":98.7426,"RA_OF_ASC_NODE":152.1154,"ARG_OF_PERICENTER":175.4019,"MEAN_ANOMALY":250.2755,"EPHEMERIS_TYPE":0,"CLASSIFICATION_TYPE":"U","NORAD_CAT_ID":30253,"ELEMENT_SET_NO":999,"REV_AT_EPOCH":95173,"BSTAR":0.0022546,"MEAN_MOTION_DOT":2.476e-5,"MEAN_MOTION_DDOT":0},{"OBJECT_NAME":"FENGYUN 1C DEB","OBJECT_ID":"1999-025XS","EPOCH":"2026-03-06T11:24:50.218272","MEAN_MOTION":14.09780379,"ECCENTRICITY":0.00578916,"INCLINATION":98.755,"RA_OF_ASC_NODE":66.727,"ARG_OF_PERICENTER":221.7456,"MEAN_ANOMALY":292.4603,"EPHEMERIS_TYPE":0,"CLASSIFICATION_TYPE":"U","NORAD_CAT_ID":30257,"ELEMENT_SET_NO":999,"REV_AT_EPOCH":98397,"BSTAR":0.00017308178,"MEAN_MOTION_DOT":2.66e-6,"MEAN_MOTION_DDOT":0},{"OBJECT_NAME":"FENGYUN 1C DEB","OBJECT_ID":"1999-025XU","EPOCH":"2026-03-07T01:54:53.379936","MEAN_MOTION":14.51898743,"ECCENTRICITY":0.0242223,"INCLINATION":98.7571,"RA_OF_ASC_NODE":286.4706,"ARG_OF_PERICENTER":12.7275,"MEAN_ANOMALY":138.7575,"EPHEMERIS_TYPE":0,"CLASSIFICATION_TYPE":"U","NORAD_CAT_ID":30259,"ELEMENT_SET_NO":999,"REV_AT_EPOCH":697,"BSTAR":0.00032883,"MEAN_MOTION_DOT":1.882e-5,"MEAN_MOTION_DDOT":0},{"OBJECT_NAME":"FENGYUN 1C DEB","OBJECT_ID":"1999-025XY","EPOCH":"2026-03-06T06:19:27.755616","MEAN_MOTION":14.01877078,"ECCENTRICITY":0.01478454,"INCLINATION":98.934,"RA_OF_ASC_NODE":183.7475,"ARG_OF_PERICENTER":129.2815,"MEAN_ANOMALY":291.6329,"EPHEMERIS_TYPE":0,"CLASSIFICATION_TYPE":"U","NORAD_CAT_ID":30263,"ELEMENT_SET_NO":999,"REV_AT_EPOCH":97195,"BSTAR":0.0018118117,"MEAN_MOTION_DOT":2.992e-5,"MEAN_MOTION_DDOT":0},{"OBJECT_NAME":"FENGYUN 1C DEB","OBJECT_ID":"1999-025XZ","EPOCH":"2026-03-07T03:11:38.357376","MEAN_MOTION":14.08007038,"ECCENTRICITY":0.0106702,"INCLINATION":98.9608,"RA_OF_ASC_NODE":125.6823,"ARG_OF_PERICENTER":53.0002,"MEAN_ANOMALY":335.5681,"EPHEMERIS_TYPE":0,"CLASSIFICATION_TYPE":"U","NORAD_CAT_ID":30264,"ELEMENT_SET_NO":999,"REV_AT_EPOCH":97745,"BSTAR":0.000898,"MEAN_MOTION_DOT":1.565e-5,"MEAN_MOTION_DDOT":0},{"OBJECT_NAME":"FENGYUN 1C DEB","OBJECT_ID":"1999-025YA","EPOCH":"2026-03-06T06:16:06.429792","MEAN_MOTION":14.60974271,"ECCENTRICITY":0.00285129,"INCLINATION":98.6616,"RA_OF_ASC_NODE":183.0763,"ARG_OF_PERICENTER":119.9105,"MEAN_ANOMALY":301.3525,"EPHEMERIS_TYPE":0,"CLASSIFICATION_TYPE":"U","NORAD_CAT_ID":30265,"ELEMENT_SET_NO":999,"REV_AT_EPOCH":99620,"BSTAR":0.0028379523,"MEAN_MOTION_DOT":0.00013965,"MEAN_MOTION_DDOT":0},{"OBJECT_NAME":"FENGYUN 1C DEB","OBJECT_ID":"1999-025YB","EPOCH":"2026-03-07T04:19:16.409856","MEAN_MOTION":14.15593372,"ECCENTRICITY":0.0084961,"INCLINATION":99.0326,"RA_OF_ASC_NODE":136.5331,"ARG_OF_PERICENTER":185.1551,"MEAN_ANOMALY":231.8105,"EPHEMERIS_TYPE":0,"CLASSIFICATION_TYPE":"U","NORAD_CAT_ID":30266,"ELEMENT_SET_NO":999,"REV_AT_EPOCH":97984,"BSTAR":0.0014839,"MEAN_MOTION_DOT":2.963e-5,"MEAN_MOTION_DDOT":0},{"OBJECT_NAME":"FENGYUN 1C DEB","OBJECT_ID":"1999-025YC","EPOCH":"2026-03-07T04:01:31.520352","MEAN_MOTION":14.24235538,"ECCENTRICITY":0.0055824,"INCLINATION":98.8399,"RA_OF_ASC_NODE":142.8456,"ARG_OF_PERICENTER":1.9138,"MEAN_ANOMALY":358.2243,"EPHEMERIS_TYPE":0,"CLASSIFICATION_TYPE":"U","NORAD_CAT_ID":30267,"ELEMENT_SET_NO":999,"REV_AT_EPOCH":98496,"BSTAR":0.0012395,"MEAN_MOTION_DOT":2.861e-5,"MEAN_MOTION_DDOT":0},{"OBJECT_NAME":"FENGYUN 1C DEB","OBJECT_ID":"1999-025YF","EPOCH":"2026-03-07T00:21:49.937184","MEAN_MOTION":14.11316128,"ECCENTRICITY":0.0006014,"INCLINATION":98.7002,"RA_OF_ASC_NODE":82.1416,"ARG_OF_PERICENTER":290.0391,"MEAN_ANOMALY":124.2429,"EPHEMERIS_TYPE":0,"CLASSIFICATION_TYPE":"U","NORAD_CAT_ID":30270,"ELEMENT_SET_NO":999,"REV_AT_EPOCH":98550,"BSTAR":0.00011231,"MEAN_MOTION_DOT":1.6e-6,"MEAN_MOTION_DDOT":0},{"OBJECT_NAME":"FENGYUN 1C DEB","OBJECT_ID":"1999-025YH","EPOCH":"2026-03-07T04:00:53.110368","MEAN_MOTION":14.15123528,"ECCENTRICITY":0.0051853,"INCLINATION":98.8904,"RA_OF_ASC_NODE":138.6009,"ARG_OF_PERICENTER":220.4134,"MEAN_ANOMALY":139.3182,"EPHEMERIS_TYPE":0,"CLASSIFICATION_TYPE":"U","NORAD_CAT_ID":30272,"ELEMENT_SET_NO":999,"REV_AT_EPOCH":98050,"BSTAR":0.0012631,"MEAN_MOTION_DOT":2.438e-5,"MEAN_MOTION_DDOT":0},{"OBJECT_NAME":"FENGYUN 1C DEB","OBJECT_ID":"1999-025YJ","EPOCH":"2026-03-05T23:46:49.681920","MEAN_MOTION":14.02822512,"ECCENTRICITY":0.00610284,"INCLINATION":98.8367,"RA_OF_ASC_NODE":82.1062,"ARG_OF_PERICENTER":18.7675,"MEAN_ANOMALY":43.5664,"EPHEMERIS_TYPE":0,"CLASSIFICATION_TYPE":"U","NORAD_CAT_ID":30273,"ELEMENT_SET_NO":999,"REV_AT_EPOCH":97696,"BSTAR":0.00082708327,"MEAN_MOTION_DOT":1.258e-5,"MEAN_MOTION_DDOT":0}]
